{
  "type": "FeatureCollection",
  "features": [
    {
      "type": "Feature",
      "properties": {
        "norad_id": 37420,
        "name": "FENGYUN 1C DEB",
        "group": "fengyun-1c-debris",
        "lat": -43.63457197251741,
        "lon": -20.856892548171178,
        "alt_km": 853.3194930546324,
        "timestamp": "2025-12-06T09:34:17.202748+00:00",
        "meta_object_name": "FENGYUN 1C DEB",
        "meta_object_id": "1999-025EGN",
        "meta_epoch": "2025-12-05T06:19:54.240672",
        "meta_mean_motion": 13.9973043,
        "meta_eccentricity": 0.00710252,
        "meta_inclination": 98.8605,
        "meta_ra_of_asc_node": 329.4914,
        "meta_arg_of_pericenter": 297.095,
        "meta_mean_anomaly": 62.2981,
        "meta_ephemeris_type": 0,
        "meta_classification_type": "U",
        "meta_norad_cat_id": 37420,
        "meta_element_set_no": 999,
        "meta_rev_at_epoch": 59660,
        "meta_bstar": 0.00084782386,
        "meta_mean_motion_dot": 1.225e-05,
        "meta_mean_motion_ddot": 0,
        "tle_line1": "1 37420U 99025EGN 25339.26382223  .00001225  00000+0  84782-3 0  9992",
        "tle_line2": "2 37420  98.8605 329.4914 0071025 297.0950  62.2981 13.99730430596606"
      },
      "geometry": {
        "type": "Point",
        "coordinates": [
          -20.856892548171178,
          -43.63457197251741
        ]
      }
    },
    {
      "type": "Feature",
      "properties": {
        "norad_id": 37421,
        "name": "FENGYUN 1C DEB",
        "group": "fengyun-1c-debris",
        "lat": -28.663543215663083,
        "lon": 110.98905246361517,
        "alt_km": 1193.8751967310836,
        "timestamp": "2025-12-06T09:34:17.202758+00:00",
        "meta_object_name": "FENGYUN 1C DEB",
        "meta_object_id": "1999-025EGP",
        "meta_epoch": "2025-12-05T14:39:53.220096",
        "meta_mean_motion": 13.40516964,
        "meta_eccentricity": 0.04089976,
        "meta_inclination": 98.8861,
        "meta_ra_of_asc_node": 295.2012,
        "meta_arg_of_pericenter": 103.3712,
        "meta_mean_anomaly": 261.3346,
        "meta_ephemeris_type": 0,
        "meta_classification_type": "U",
        "meta_norad_cat_id": 37421,
        "meta_element_set_no": 999,
        "meta_rev_at_epoch": 60850,
        "meta_bstar": 0.00084668375,
        "meta_mean_motion_dot": 7.26e-06,
        "meta_mean_motion_ddot": 0,
        "tle_line1": "1 37421U 99025EGP 25339.61103264  .00000726  00000+0  84668-3 0  9996",
        "tle_line2": "2 37421  98.8861 295.2012 0408997 103.3712 261.3346 13.40516964608507"
      },
      "geometry": {
        "type": "Point",
        "coordinates": [
          110.98905246361517,
          -28.663543215663083
        ]
      }
    },
    {
      "type": "Feature",
      "properties": {
        "norad_id": 37423,
        "name": "FENGYUN 1C DEB",
        "group": "fengyun-1c-debris",
        "lat": 15.669245159960747,
        "lon": -146.699264696626,
        "alt_km": 833.815867362151,
        "timestamp": "2025-12-06T09:34:17.202769+00:00",
        "meta_object_name": "FENGYUN 1C DEB",
        "meta_object_id": "1999-025EGR",
        "meta_epoch": "2025-12-02T09:15:11.081088",
        "meta_mean_motion": 14.07508063,
        "meta_eccentricity": 0.00491371,
        "meta_inclination": 98.7874,
        "meta_ra_of_asc_node": 26.9108,
        "meta_arg_of_pericenter": 188.2995,
        "meta_mean_anomaly": 171.7367,
        "meta_ephemeris_type": 0,
        "meta_classification_type": "U",
        "meta_norad_cat_id": 37423,
        "meta_element_set_no": 999,
        "meta_rev_at_epoch": 63464,
        "meta_bstar": 0.00087659335,
        "meta_mean_motion_dot": 1.451e-05,
        "meta_mean_motion_ddot": 0,
        "tle_line1": "1 37423U 99025EGR 25336.38554492  .00001451  00000+0  87659-3 0  9991",
        "tle_line2": "2 37423  98.7874  26.9108 0049137 188.2995 171.7367 14.07508063634645"
      },
      "geometry": {
        "type": "Point",
        "coordinates": [
          -146.699264696626,
          15.669245159960747
        ]
      }
    },
    {
      "type": "Feature",
      "properties": {
        "norad_id": 37424,
        "name": "FENGYUN 1C DEB",
        "group": "fengyun-1c-debris",
        "lat": 17.985136045861964,
        "lon": -67.56903082073802,
        "alt_km": 950.337671897897,
        "timestamp": "2025-12-06T09:34:17.202779+00:00",
        "meta_object_name": "FENGYUN 1C DEB",
        "meta_object_id": "1999-025EGS",
        "meta_epoch": "2025-11-26T15:03:16.540128",
        "meta_mean_motion": 14.17748147,
        "meta_eccentricity": 0.02143557,
        "meta_inclination": 97.1976,
        "meta_ra_of_asc_node": 102.1461,
        "meta_arg_of_pericenter": 331.0381,
        "meta_mean_anomaly": 27.9039,
        "meta_ephemeris_type": 0,
        "meta_classification_type": "U",
        "meta_norad_cat_id": 37424,
        "meta_element_set_no": 999,
        "meta_rev_at_epoch": 68345,
        "meta_bstar": 0.00085242664,
        "meta_mean_motion_dot": 2.145e-05,
        "meta_mean_motion_ddot": 0,
        "tle_line1": "1 37424U 99025EGS 25330.62727477  .00002145  00000+0  85243-3 0  9996",
        "tle_line2": "2 37424  97.1976 102.1461 0214355 331.0381  27.9039 14.17748147683455"
      },
      "geometry": {
        "type": "Point",
        "coordinates": [
          -67.56903082073802,
          17.985136045861964
        ]
      }
    },
    {
      "type": "Feature",
      "properties": {
        "norad_id": 37427,
        "name": "FENGYUN 1C DEB",
        "group": "fengyun-1c-debris",
        "lat": 4.400726096642471,
        "lon": -57.728746434112026,
        "alt_km": 680.0395607858982,
        "timestamp": "2025-12-06T09:34:17.202789+00:00",
        "meta_object_name": "FENGYUN 1C DEB",
        "meta_object_id": "1999-025EGV",
        "meta_epoch": "2025-11-25T03:26:10.747680",
        "meta_mean_motion": 14.97768919,
        "meta_eccentricity": 0.01887185,
        "meta_inclination": 98.6232,
        "meta_ra_of_asc_node": 109.1733,
        "meta_arg_of_pericenter": 355.7363,
        "meta_mean_anomaly": 4.2239,
        "meta_ephemeris_type": 0,
        "meta_classification_type": "U",
        "meta_norad_cat_id": 37427,
        "meta_element_set_no": 999,
        "meta_rev_at_epoch": 60059,
        "meta_bstar": 0.00046451943,
        "meta_mean_motion_dot": 7.8e-05,
        "meta_mean_motion_ddot": 0,
        "tle_line1": "1 37427U 99025EGV 25329.14317995  .00007800  00000+0  46452-3 0  9996",
        "tle_line2": "2 37427  98.6232 109.1733 0188718 355.7363   4.2239 14.97768919600595"
      },
      "geometry": {
        "type": "Point",
        "coordinates": [
          -57.728746434112026,
          4.400726096642471
        ]
      }
    },
    {
      "type": "Feature",
      "properties": {
        "norad_id": 37430,
        "name": "FENGYUN 1C DEB",
        "group": "fengyun-1c-debris",
        "lat": -40.56890513428781,
        "lon": -133.11940125481223,
        "alt_km": 810.8747601618543,
        "timestamp": "2025-12-06T09:34:17.202800+00:00",
        "meta_object_name": "FENGYUN 1C DEB",
        "meta_object_id": "1999-025EGY",
        "meta_epoch": "2025-12-05T03:58:16.719456",
        "meta_mean_motion": 14.28846273,
        "meta_eccentricity": 0.001883,
        "meta_inclination": 98.7668,
        "meta_ra_of_asc_node": 53.2332,
        "meta_arg_of_pericenter": 93.5332,
        "meta_mean_anomaly": 266.8003,
        "meta_ephemeris_type": 0,
        "meta_classification_type": "U",
        "meta_norad_cat_id": 37430,
        "meta_element_set_no": 999,
        "meta_rev_at_epoch": 61593,
        "meta_bstar": 0.0038447795,
        "meta_mean_motion_dot": 9.683e-05,
        "meta_mean_motion_ddot": 0,
        "tle_line1": "1 37430U 99025EGY 25339.16547129  .00009683  00000+0  38448-2 0  9993",
        "tle_line2": "2 37430  98.7668  53.2332 0018830  93.5332 266.8003 14.28846273615930"
      },
      "geometry": {
        "type": "Point",
        "coordinates": [
          -133.11940125481223,
          -40.56890513428781
        ]
      }
    },
    {
      "type": "Feature",
      "properties": {
        "norad_id": 37432,
        "name": "FENGYUN 1C DEB",
        "group": "fengyun-1c-debris",
        "lat": 77.97388251914762,
        "lon": -143.69077781046275,
        "alt_km": 820.2343899682974,
        "timestamp": "2025-12-06T09:34:17.202811+00:00",
        "meta_object_name": "FENGYUN 1C DEB",
        "meta_object_id": "1999-025EHA",
        "meta_epoch": "2025-12-05T18:14:41.033760",
        "meta_mean_motion": 14.53339368,
        "meta_eccentricity": 0.01824817,
        "meta_inclination": 98.1839,
        "meta_ra_of_asc_node": 353.19,
        "meta_arg_of_pericenter": 309.6452,
        "meta_mean_anomaly": 48.8764,
        "meta_ephemeris_type": 0,
        "meta_classification_type": "U",
        "meta_norad_cat_id": 37432,
        "meta_element_set_no": 999,
        "meta_rev_at_epoch": 8275,
        "meta_bstar": 0.0017271417,
        "meta_mean_motion_dot": 8.904e-05,
        "meta_mean_motion_ddot": 0,
        "tle_line1": "1 37432U 99025EHA 25339.76019715  .00008904  00000+0  17271-2 0  9992",
        "tle_line2": "2 37432  98.1839 353.1900 0182481 309.6452  48.8764 14.53339368 82757"
      },
      "geometry": {
        "type": "Point",
        "coordinates": [
          -143.69077781046275,
          77.97388251914762
        ]
      }
    }
  ]
}